[{"OBJECT_NAME":"HAWK-2C","OBJECT_ID":"2021-006CT","EPOCH":"2026-03-09T16:13:22.454976","MEAN_MOTION":15.33286436,"ECCENTRICITY":0.0006943,"INCLINATION":97.2417,"RA_OF_ASC_NODE":114.9961,"ARG_OF_PERICENTER":184.0877,"MEAN_ANOMALY":176.031,"EPHEMERIS_TYPE":0,"CLASSIFICATION_TYPE":"U","NORAD_CAT_ID":47502,"ELEMENT_SET_NO":999,"REV_AT_EPOCH":28424,"BSTAR":0.00025492914,"MEAN_MOTION_DOT":8.129e-5,"MEAN_MOTION_DDOT":0},{"OBJECT_NAME":"STARLINK-32782","OBJECT_ID":"2025-018R","EPOCH":"2026-03-09T23:21:28.240128","MEAN_MOTION":15.30202984,"ECCENTRICITY":0.00011687,"INCLINATION":53.1604,"RA_OF_ASC_NODE":308.1469,"ARG_OF_PERICENTER":108.6602,"MEAN_ANOMALY":251.4526,"EPHEMERIS_TYPE":0,"CLASSIFICATION_TYPE":"U","NORAD_CAT_ID":62821,"ELEMENT_SET_NO":999,"REV_AT_EPOCH":6322,"BSTAR":0.0005291192,"MEAN_MOTION_DOT":0.00015346,"MEAN_MOTION_DDOT":0}]
